start=new Date('2021-09-29T00:00:00.000Z').valueOf();
sats=[{"SEMIMAJOR_AXIS":"6921.422","MEAN_MOTION_DDOT":"0.0000000000000","OBJECT_NAME":"STARLINK-1939","EPHEMERIS_TYPE":"0","MEAN_ANOMALY":"262.2540","ARG_OF_PERICENTER":"97.8668","RA_OF_ASC_NODE":"61.6249","REF_FRAME":"TEME","NORAD_CAT_ID":"46774","PERIAPSIS":"541.952","DECAY_DATE":null,"TLE_LINE1":"1 46774U 20074AM  21271.71201768  .00007681  00000-0  51595-3 0  9996","TLE_LINE2":"2 46774  53.0540  61.6249 0001929  97.8668 262.2540 15.07682169 51866","MEAN_ELEMENT_THEORY":"SGP4","INCLINATION":"53.0540","EPOCH":"2021-09-28T17:05:18.327552","CLASSIFICATION_TYPE":"U","LAUNCH_DATE":"2020-10-24","ECCENTRICITY":"0.00019290","PERIOD":"95.511","MEAN_MOTION_DOT":"0.00007681","REV_AT_EPOCH":"5186","CENTER_NAME":"EARTH","GP_ID":"185725899","RCS_SIZE":"LARGE","APOAPSIS":"544.622","OBJECT_TYPE":"PAYLOAD","SITE":"AFETR","BSTAR":"0.00051595000000","FILE":"3133041","TIME_SYSTEM":"UTC","ELEMENT_SET_NO":"999","OBJECT_ID":"2020-074AM","MEAN_MOTION":"15.07682169","COUNTRY_CODE":"US"},{"REV_AT_EPOCH":"5181","PERIOD":"95.593","MEAN_MOTION_DOT":"0.00000510","LAUNCH_DATE":"2020-10-24","CLASSIFICATION_TYPE":"U","EPOCH":"2021-09-28T12:57:22.678848","ECCENTRICITY":"0.00016320","APOAPSIS":"548.380","CENTER_NAME":"EARTH","RCS_SIZE":"LARGE","GP_ID":"185715449","SITE":"AFETR","TIME_SYSTEM":"UTC","FILE":"3132662","BSTAR":"0.00005315200000","OBJECT_TYPE":"PAYLOAD","OBJECT_ID":"2020-074AN","ELEMENT_SET_NO":"999","MEAN_MOTION":"15.06388208","COUNTRY_CODE":"US","MEAN_ANOMALY":"263.9204","OBJECT_NAME":"STARLINK-1945","MEAN_MOTION_DDOT":"0.0000000000000","SEMIMAJOR_AXIS":"6925.385","EPHEMERIS_TYPE":"0","ARG_OF_PERICENTER":"96.1971","RA_OF_ASC_NODE":"63.2233","REF_FRAME":"TEME","PERIAPSIS":"546.119","NORAD_CAT_ID":"46775","INCLINATION":"53.0566","TLE_LINE1":"1 46775U 20074AN  21271.53984582  .00000510  00000-0  53152-4 0  9995","DECAY_DATE":null,"MEAN_ELEMENT_THEORY":"SGP4","TLE_LINE2":"2 46775  53.0566  63.2233 0001632  96.1971 263.9204 15.06388208 51812"},{"OBJECT_TYPE":"PAYLOAD","SITE":"AFETR","TIME_SYSTEM":"UTC","FILE":"3132662","BSTAR":"0.00000428680000","ELEMENT_SET_NO":"999","OBJECT_ID":"2020-074AP","COUNTRY_CODE":"US","MEAN_MOTION":"15.06396100","LAUNCH_DATE":"2020-10-24","CLASSIFICATION_TYPE":"U","EPOCH":"2021-09-28T12:25:31.501344","ECCENTRICITY":"0.00016950","REV_AT_EPOCH":"5181","PERIOD":"95.592","MEAN_MOTION_DOT":"-0.00000218","CENTER_NAME":"EARTH","RCS_SIZE":"LARGE","GP_ID":"185715699","APOAPSIS":"548.399","NORAD_CAT_ID":"46776","PERIAPSIS":"546.052","TLE_LINE1":"1 46776U 20074AP  21271.51772571 -.00000218  00000-0  42868-5 0  9996","DECAY_DATE":null,"MEAN_ELEMENT_THEORY":"SGP4","TLE_LINE2":"2 46776  53.0549  63.3195 0001695  99.8070 260.3110 15.06396100 51818","INCLINATION":"53.0549","OBJECT_NAME":"STARLINK-1946","MEAN_MOTION_DDOT":"0.0000000000000","SEMIMAJOR_AXIS":"6925.361","EPHEMERIS_TYPE":"0","MEAN_ANOMALY":"260.3110","ARG_OF_PERICENTER":"99.8070","REF_FRAME":"TEME","RA_OF_ASC_NODE":"63.3195"},{"OBJECT_ID":"2020-074AQ","ELEMENT_SET_NO":"999","COUNTRY_CODE":"US","MEAN_MOTION":"16.02156174","SITE":"AFETR","BSTAR":"0.00297430000000","FILE":"3133029","TIME_SYSTEM":"UTC","OBJECT_TYPE":"PAYLOAD","APOAPSIS":"275.373","CENTER_NAME":"EARTH","GP_ID":"185725677","RCS_SIZE":"LARGE","PERIOD":"89.879","MEAN_MOTION_DOT":"0.01731036","REV_AT_EPOCH":"5267","EPOCH":"2021-09-28T18:31:30.121824","CLASSIFICATION_TYPE":"U","LAUNCH_DATE":"2020-10-24","ECCENTRICITY":"0.00104150","INCLINATION":"53.0443","DECAY_DATE":null,"TLE_LINE1":"1 46777U 20074AQ  21271.77187641  .01731036  19081-2  29743-2 0  9997","TLE_LINE2":"2 46777  53.0443   4.0734 0010415 331.0481  28.9970 16.02156174 52679","MEAN_ELEMENT_THEORY":"SGP4","PERIAPSIS":"261.528","NORAD_CAT_ID":"46777","ARG_OF_PERICENTER":"331.0481","REF_FRAME":"TEME","RA_OF_ASC_NODE":"4.0734","MEAN_ANOMALY":"28.9970","SEMIMAJOR_AXIS":"6646.586","MEAN_MOTION_DDOT":"0.0019081000000","OBJECT_NAME":"STARLINK-1949","EPHEMERIS_TYPE":"0"},{"SEMIMAJOR_AXIS":"6925.373","MEAN_MOTION_DDOT":"0.0000000000000","OBJECT_NAME":"STARLINK-1798","EPHEMERIS_TYPE":"0","MEAN_ANOMALY":"257.8249","ARG_OF_PERICENTER":"102.2879","REF_FRAME":"TEME","RA_OF_ASC_NODE":"38.2461","NORAD_CAT_ID":"46779","PERIAPSIS":"546.382","DECAY_DATE":null,"TLE_LINE1":"1 46779U 20074AS  21271.53293459  .00000012  00000-0  19689-4 0  9999","TLE_LINE2":"2 46779  53.0558  38.2461 0001236 102.2879 257.8249 15.06392088 52169","MEAN_ELEMENT_THEORY":"SGP4","INCLINATION":"53.0558","CLASSIFICATION_TYPE":"U","EPOCH":"2021-09-28T12:47:25.548576","LAUNCH_DATE":"2020-10-24","ECCENTRICITY":"0.00012360","PERIOD":"95.593","MEAN_MOTION_DOT":"0.00000012","REV_AT_EPOCH":"5216","CENTER_NAME":"EARTH","GP_ID":"185717201","RCS_SIZE":"LARGE","APOAPSIS":"548.094","OBJECT_TYPE":"PAYLOAD","SITE":"AFETR","BSTAR":"0.00001968900000","FILE":"3132662","TIME_SYSTEM":"UTC","ELEMENT_SET_NO":"999","OBJECT_ID":"2020-074AS","COUNTRY_CODE":"US","MEAN_MOTION":"15.06392088"},{"OBJECT_TYPE":"PAYLOAD","FILE":"3132662","BSTAR":"0.00001030200000","TIME_SYSTEM":"UTC","SITE":"AFETR","MEAN_MOTION":"15.06396750","COUNTRY_CODE":"US","ELEMENT_SET_NO":"999","OBJECT_ID":"2020-074AT","ECCENTRICITY":"0.00012490","CLASSIFICATION_TYPE":"U","EPOCH":"2021-09-28T12:31:29.417664","LAUNCH_DATE":"2020-10-24","MEAN_MOTION_DOT":"-0.00000128","PERIOD":"95.592","REV_AT_EPOCH":"5216","GP_ID":"185715950","RCS_SIZE":"LARGE","CENTER_NAME":"EARTH","APOAPSIS":"548.088","NORAD_CAT_ID":"46780","PERIAPSIS":"546.359","TLE_LINE2":"2 46780  53.0563  38.2970 0001249  98.8081 261.3049 15.06396750 52169","MEAN_ELEMENT_THEORY":"SGP4","DECAY_DATE":null,"TLE_LINE1":"1 46780U 20074AT  21271.52186826 -.00000128  00000-0  10302-4 0  9991","INCLINATION":"53.0563","EPHEMERIS_TYPE":"0","SEMIMAJOR_AXIS":"6925.359","OBJECT_NAME":"STARLINK-1832","MEAN_MOTION_DDOT":"0.0000000000000","MEAN_ANOMALY":"261.3049","RA_OF_ASC_NODE":"38.2970","REF_FRAME":"TEME","ARG_OF_PERICENTER":"98.8081"},{"EPHEMERIS_TYPE":"0","OBJECT_NAME":"STARLINK-1834","MEAN_MOTION_DDOT":"0.0000000000000","SEMIMAJOR_AXIS":"6925.349","MEAN_ANOMALY":"254.0630","RA_OF_ASC_NODE":"47.3342","REF_FRAME":"TEME","ARG_OF_PERICENTER":"106.0520","NORAD_CAT_ID":"46781","PERIAPSIS":"546.200","MEAN_ELEMENT_THEORY":"SGP4","TLE_LINE2":"2 46781  53.0548  47.3342 0001463 106.0520 254.0630 15.06399984 51790","TLE_LINE1":"1 46781U 20074AU  21271.73842049  .00000682  00000-0  64663-4 0  9994","DECAY_DATE":null,"INCLINATION":"53.0548","ECCENTRICITY":"0.00014630","LAUNCH_DATE":"2020-10-24","CLASSIFICATION_TYPE":"U","EPOCH":"2021-09-28T17:43:19.530336","REV_AT_EPOCH":"5179","PERIOD":"95.592","MEAN_MOTION_DOT":"0.00000682","RCS_SIZE":"LARGE","GP_ID":"185723025","CENTER_NAME":"EARTH","APOAPSIS":"548.227","OBJECT_TYPE":"PAYLOAD","TIME_SYSTEM":"UTC","FILE":"3132919","BSTAR":"0.00006466300000","SITE":"AFETR","MEAN_MOTION":"15.06399984","COUNTRY_CODE":"US","ELEMENT_SET_NO":"999","OBJECT_ID":"2020-074AU"},{"ECCENTRICITY":"0.00012930","CLASSIFICATION_TYPE":"U","EPOCH":"2021-09-28T12:15:34.337376","LAUNCH_DATE":"2020-10-24","MEAN_MOTION_DOT":"0.00000253","PERIOD":"95.593","REV_AT_EPOCH":"5216","GP_ID":"185716949","RCS_SIZE":"LARGE","CENTER_NAME":"EARTH","APOAPSIS":"548.146","OBJECT_TYPE":"PAYLOAD","FILE":"3132662","BSTAR":"0.00003589000000","TIME_SYSTEM":"UTC","SITE":"AFETR","MEAN_MOTION":"15.06387782","COUNTRY_CODE":"US","ELEMENT_SET_NO":"999","OBJECT_ID":"2020-074AV","EPHEMERIS_TYPE":"0","SEMIMAJOR_AXIS":"6925.386","MEAN_MOTION_DDOT":"0.0000000000000","OBJECT_NAME":"STARLINK-1835","MEAN_ANOMALY":"256.0372","REF_FRAME":"TEME","RA_OF_ASC_NODE":"38.3650","ARG_OF_PERICENTER":"104.0760","NORAD_CAT_ID":"46782","PERIAPSIS":"546.356","TLE_LINE2":"2 46782  53.0555  38.3650 0001293 104.0760 256.0372 15.06387782 52166","MEAN_ELEMENT_THEORY":"SGP4","DECAY_DATE":null,"TLE_LINE1":"1 46782U 20074AV  21271.51081409  .00000253  00000-0  35890-4 0  9990","INCLINATION":"53.0555"},{"EPHEMERIS_TYPE":"0","OBJECT_NAME":"STARLINK-1851","MEAN_MOTION_DDOT":"0.0000000000000","SEMIMAJOR_AXIS":"6925.345","MEAN_ANOMALY":"251.0821","RA_OF_ASC_NODE":"37.0843","REF_FRAME":"TEME","ARG_OF_PERICENTER":"109.0295","NORAD_CAT_ID":"46783","PERIAPSIS":"546.400","MEAN_ELEMENT_THEORY":"SGP4","TLE_LINE2":"2 46783  53.0577  37.0843 0001169 109.0295 251.0821 15.06401213 51935","TLE_LINE1":"1 46783U 20074AW  21271.79093498  .00002028  00000-0  15502-3 0  9991","DECAY_DATE":null,"INCLINATION":"53.0577","ECCENTRICITY":"0.00011690","LAUNCH_DATE":"2020-10-24","EPOCH":"2021-09-28T18:58:56.782272","CLASSIFICATION_TYPE":"U","REV_AT_EPOCH":"5193","PERIOD":"95.592","MEAN_MOTION_DOT":"0.00002028","RCS_SIZE":"LARGE","GP_ID":"185723145","CENTER_NAME":"EARTH","APOAPSIS":"548.019","OBJECT_TYPE":"PAYLOAD","TIME_SYSTEM":"UTC","BSTAR":"0.00015502000000","FILE":"3132926","SITE":"AFETR","MEAN_MOTION":"15.06401213","COUNTRY_CODE":"US","OBJECT_ID":"2020-074AW","ELEMENT_SET_NO":"999"},{"SITE":"AFETR","TIME_SYSTEM":"UTC","FILE":"3132928","BSTAR":"0.00008461200000","OBJECT_TYPE":"PAYLOAD","OBJECT_ID":"2020-074AX","ELEMENT_SET_NO":"999","MEAN_MOTION":"15.06404804","COUNTRY_CODE":"US","REV_AT_EPOCH":"5187","PERIOD":"95.592","MEAN_MOTION_DOT":"0.00000979","LAUNCH_DATE":"2020-10-24","EPOCH":"2021-09-28T19:04:15.215520","CLASSIFICATION_TYPE":"U","ECCENTRICITY":"0.00012320","APOAPSIS":"548.052","CENTER_NAME":"EARTH","RCS_SIZE":"LARGE","GP_ID":"185723684","PERIAPSIS":"546.346","NORAD_CAT_ID":"46784","INCLINATION":"53.0557","TLE_LINE1":"1 46784U 20074AX  21271.79462055  .00000979  00000-0  84612-4 0  9993","DECAY_DATE":null,"MEAN_ELEMENT_THEORY":"SGP4","TLE_LINE2":"2 46784  53.0557  37.0656 0001232 102.5571 257.5556 15.06404804 51870","MEAN_ANOMALY":"257.5556","OBJECT_NAME":"STARLINK-1882","MEAN_MOTION_DDOT":"0.0000000000000","SEMIMAJOR_AXIS":"6925.334","EPHEMERIS_TYPE":"0","ARG_OF_PERICENTER":"102.5571","RA_OF_ASC_NODE":"37.0656","REF_FRAME":"TEME"}];
